NORAD_CAT_ID,OBJECT_NAME,OBJECT_TYPE,EPOCH,MEAN_MOTION,ECCENTRICITY,INCLINATION,RA_OF_ASC_NODE,ARG_OF_PERICENTER,MEAN_ANOMALY,BSTAR,MEAN_MOTION_DOT,MEAN_MOTION_DDOT,TLE_LINE0,TLE_LINE1,TLE_LINE2,SEMIMAJOR_AXIS,PERIOD,APOGEE,PERIGEE,DECAYED
53606.0,STARLINK-4590,PAYLOAD,2023-02-13 23:15:27,15.08847688,0.0001154,53.2162,220.8504,89.3666,270.7458,0.00012196,1.654e-05,0.0,0 STARLINK-4590,1 53606U 22104U   23044.96906471  .00001654  00000-0  12196-3 0  9992,2 53606  53.2162 220.8504 0001154  89.3666 270.7458 15.08847688 26029,6917.857,95.437,540.52,538.924,0.0
53606.0,STARLINK-4590,PAYLOAD,2023-02-14 11:58:32,15.08839389,0.0001238,53.2161,218.4713,96.7676,263.3457,6.4781e-05,7.43e-06,0.0,0 STARLINK-4590,1 53606U 22104U   23045.49898917  .00000743  00000-0  64781-4 0  9992,2 53606  53.2161 218.4713 0001238  96.7676 263.3457 15.08839389 26104,6917.882,95.438,540.604,538.891,0.0
53606.0,STARLINK-4590,PAYLOAD,2023-02-14 13:33:55,15.08840069,0.0001208,53.2166,218.1741,93.9727,266.1403,8.0989e-05,1.001e-05,0.0,0 STARLINK-4590,1 53606U 22104U   23045.56522862  .00001001  00000-0  80989-4 0  9999,2 53606  53.2166 218.1741 0001208  93.9727 266.1403 15.08840069 26682,6917.88,95.438,540.581,538.909,0.0
53606.0,STARLINK-4590,PAYLOAD,2023-02-14 18:20:04,15.08848011,0.0001233,53.2161,217.2822,93.0543,267.059,0.00019391,2.8e-05,0.0,0 STARLINK-4590,1 53606U 22104U   23045.76394419  .00002800  00000-0  19391-3 0  9992,2 53606  53.2161 217.2822 0001233  93.0543 267.0590 15.08848011 26145,6917.856,95.437,540.574,538.868,0.0
53606.0,STARLINK-4590,PAYLOAD,2023-02-15 11:49:19,15.08839496,0.0001001,53.2163,214.0111,102.757,257.3534,0.00011333,1.516e-05,0.0,0 STARLINK-4590,1 53606U 22104U   23046.49258810  .00001516  00000-0  11333-3 0  9998,2 53606  53.2163 214.0111 0001001 102.7570 257.3534 15.08839496 26253,6917.882,95.438,540.439,539.054,0.0
53606.0,STARLINK-4590,PAYLOAD,2023-02-15 18:10:51,15.08854061,0.0001053,53.2163,212.8221,87.6221,272.4892,0.00031809,4.78e-05,0.0,0 STARLINK-4590,1 53606U 22104U   23046.75754188  .00004780  00000-0  31809-3 0  9992,2 53606  53.2163 212.8221 0001053  87.6221 272.4892 15.08854061 26296,6917.837,95.437,540.431,538.974,0.0
53606.0,STARLINK-4590,PAYLOAD,2023-02-16 13:15:29,15.08842837,6.98e-05,53.2167,209.2539,356.5821,3.5167,0.00015416,2.167e-05,0.0,0 STARLINK-4590,1 53606U 22104U   23047.55242584  .00002167  00000-0  15416-3 0  9996,2 53606  53.2167 209.2539 0000698 356.5821   3.5167 15.08842837 26410,6917.872,95.437,540.22,539.254,0.0
53606.0,STARLINK-4590,PAYLOAD,2023-02-16 21:12:24,15.08852112,9.72e-05,53.2168,207.7683,78.1273,281.9828,0.00030047,4.499e-05,0.0,0 STARLINK-4590,1 53606U 22104U   23047.88362100  .00004499  00000-0  30047-3 0  9996,2 53606  53.2168 207.7683 0000972  78.1273 281.9828 15.08852112 27039,6917.843,95.437,540.381,539.036,0.0
53606.0,STARLINK-4590,PAYLOAD,2023-02-16 22:47:47,15.0886188,8.1e-05,53.215,207.4687,123.2197,236.8873,0.00050147,7.707e-05,0.0,0 STARLINK-4590,1 53606U 22104U   23047.94985499  .00007707  00000-0  50147-3 0  9993,2 53606  53.2150 207.4687 0000810 123.2197 236.8873 15.08861880 26477,6917.814,95.436,540.239,539.118,0.0
53606.0,STARLINK-4590,PAYLOAD,2023-02-17 13:06:17,15.08821013,8.97e-05,53.2171,204.7952,57.9815,302.1265,-0.00028415,-4.805e-05,0.0,0 STARLINK-4590,1 53606U 22104U   23048.54603580 -.00004805  00000-0 -28415-3 0  9999,2 53606  53.2171 204.7952 0000897  57.9815 302.1265 15.08821013 26566,6917.938,95.439,540.424,539.183,0.0
53606.0,STARLINK-4590,PAYLOAD,2023-02-17 17:52:26,15.08833042,0.0001197,53.2164,203.9025,84.1821,275.9307,7.4846e-05,9.03e-06,0.0,0 STARLINK-4590,1 53606U 22104U   23048.74475408  .00000903  00000-0  74846-4 0  9990,2 53606  53.2164 203.9025 0001197  84.1821 275.9307 15.08833042 26595,6917.902,95.438,540.595,538.939,0.0
53606.0,STARLINK-4590,PAYLOAD,2023-02-17 21:03:12,15.08835292,0.0001161,53.2159,203.3073,86.7551,273.3574,0.00032445,4.879e-05,0.0,0 STARLINK-4590,1 53606U 22104U   23048.87723365  .00004879  00000-0  32445-3 0  9996,2 53606  53.2159 203.3073 0001161  86.7551 273.3574 15.08835292 27188,6917.895,95.438,540.563,538.957,0.0
53606.0,STARLINK-4590,PAYLOAD,2023-02-18 09:46:18,15.08828881,0.0001016,53.2152,200.9251,98.6379,261.4728,0.00022269,3.257e-05,0.0,0 STARLINK-4590,1 53606U 22104U   23049.40715866  .00003257  00000-0  22269-3 0  9995,2 53606  53.2152 200.9251 0001016  98.6379 261.4728 15.08828881 27265,6917.914,95.438,540.482,539.077,0.0
53606.0,STARLINK-4590,PAYLOAD,2023-02-18 22:29:23,15.08858129,7.88e-05,53.2157,198.5475,98.9834,261.1247,0.0013342,0.0002102,0.0,0 STARLINK-4590,1 53606U 22104U   23049.93707541  .00021020  00000-0  13342-2 0  9993,2 53606  53.2157 198.5475 0000788  98.9834 261.1247 15.08858129 26770,6917.825,95.436,540.235,539.145,0.0
53606.0,STARLINK-4590,PAYLOAD,2023-02-19 14:23:15,15.08848795,0.0001461,53.2161,195.5749,63.1973,296.9168,0.00075757,0.00011792,0.0,0 STARLINK-4590,1 53606U 22104U   23050.59948156  .00011792  00000-0  75757-3 0  9990,2 53606  53.2161 195.5749 0001461  63.1973 296.9168 15.08848795 26870,6917.854,95.437,540.729,538.708,0.0
53606.0,STARLINK-4590,PAYLOAD,2023-02-20 14:14:01,15.08856234,0.0001173,53.2171,191.1154,75.1952,284.917,0.0011873,0.00018667,0.0,0 STARLINK-4590,1 53606U 22104U   23051.59307748  .00018667  00000-0  11873-2 0  9993,2 53606  53.2171 191.1154 0001173  75.1952 284.9170 15.08856234 27590,6917.831,95.437,540.507,538.884,0.0
53606.0,STARLINK-4590,PAYLOAD,2023-02-20 20:35:34,15.08862774,0.0001437,53.2164,189.9242,78.951,281.1644,0.00075162,0.00011702,0.0,0 STARLINK-4590,1 53606U 22104U   23051.85803327  .00011702  00000-0  75162-3 0  9991,2 53606  53.2164 189.9242 0001437  78.9510 281.1644 15.08862774 27062,6917.811,95.436,540.67,538.682,0.0
53606.0,STARLINK-4590,PAYLOAD,2023-02-21 12:29:25,15.08853683,0.0001141,53.2173,186.9514,74.3549,285.7569,0.00060692,9.388e-05,0.0,0 STARLINK-4590,1 53606U 22104U   23052.52043256  .00009388  00000-0  60692-3 0  9992,2 53606  53.2173 186.9514 0001141  74.3549 285.7569 15.08853683 27161,6917.839,95.437,540.493,538.914,0.0
53606.0,STARLINK-4590,PAYLOAD,2023-02-21 15:40:11,15.08864088,0.0001259,53.2173,186.357,78.6968,281.4166,0.00082124,0.00012815,0.0,0 STARLINK-4590,1 53606U 22104U   23052.65291009  .00012815  00000-0  82124-3 0  9990,2 53606  53.2173 186.3570 0001259  78.6968 281.4166 15.08864088 27751,6917.807,95.436,540.543,538.801,0.0
53606.0,STARLINK-4590,PAYLOAD,2023-02-22 01:12:30,15.08838187,0.0001568,53.218,184.5728,75.0341,285.0825,-0.00013027,-2.361e-05,0.0,0 STARLINK-4590,1 53606U 22104U   23053.05035314 -.00002361  00000-0 -13027-3 0  9993,2 53606  53.2180 184.5728 0001568  75.0341 285.0825 15.08838187 27240,6917.886,95.438,540.836,538.666,0.0
53606.0,STARLINK-4590,PAYLOAD,2023-02-22 12:20:12,15.08841913,0.0001146,53.218,182.4915,89.1951,270.9172,0.00047696,7.311e-05,0.0,0 STARLINK-4590,1 53606U 22104U   23053.51403122  .00007311  00000-0  47696-3 0  9997,2 53606  53.2180 182.4915 0001146  89.1951 270.9172 15.08841913 27889,6917.875,95.437,540.532,538.947,0.0
53606.0,STARLINK-4590,PAYLOAD,2023-02-22 17:06:21,15.08854917,0.0001379,53.2176,181.5996,83.5607,276.5542,0.00089339,0.00013965,0.0,0 STARLINK-4590,1 53606U 22104U   23053.71274931  .00013965  00000-0  89339-3 0  9995,2 53606  53.2176 181.5996 0001379  83.5607 276.5542 15.08854917 27349,6917.835,95.437,540.654,538.746,0.0
53606.0,STARLINK-4590,PAYLOAD,2023-02-22 20:17:07,15.08868534,0.0001294,53.2178,181.0045,82.3311,277.7828,0.0012829,0.00020204,0.0,0 STARLINK-4590,1 53606U 22104U   23053.84522605  .00020204  00000-0  12829-2 0  9996,2 53606  53.2178 181.0045 0001294  82.3311 277.7828 15.08868534 27931,6917.793,95.436,540.553,538.763,0.0
53606.0,STARLINK-4590,PAYLOAD,2023-02-23 01:03:17,15.08834526,0.0001258,53.2178,180.1133,97.4112,262.7023,0.00021782,3.18e-05,0.0,0 STARLINK-4590,1 53606U 22104U   23054.04395264  .00003180  00000-0  21782-3 0  9991,2 53606  53.2178 180.1133 0001258  97.4112 262.7023 15.08834526 27390,6917.897,95.438,540.632,538.892,0.0
53606.0,STARLINK-4590,PAYLOAD,2023-02-23 12:10:59,15.08838957,8.12e-05,53.2179,178.0319,100.784,259.3243,0.0016184,0.00025562,0.0,0 STARLINK-4590,1 53606U 22104U   23054.50763344  .00025562  00000-0  16184-2 0  9997,2 53606  53.2179 178.0319 0000812 100.7840 259.3243 15.08838957 28034,6917.884,95.438,540.31,539.187,0.0
53606.0,STARLINK-4590,PAYLOAD,2023-02-23 18:32:31,15.08854475,8.92e-05,53.2177,176.8423,92.5773,267.5321,0.0019315,0.00030598,0.0,0 STARLINK-4590,1 53606U 22104U   23054.77259225  .00030598  00000-0  19315-2 0  9998,2 53606  53.2177 176.8423 0000892  92.5773 267.5321 15.08854475 27507,6917.836,95.437,540.318,539.084,0.0
53606.0,STARLINK-4590,PAYLOAD,2023-02-24 00:54:04,15.08839171,9.25e-05,53.2174,175.6532,113.9047,246.2043,0.00050612,7.776e-05,0.0,0 STARLINK-4590,1 53606U 22104U   23055.03755456  .00007776  00000-0  50612-3 0  9993,2 53606  53.2174 175.6532 0000925 113.9047 246.2043 15.08839171 27546,6917.883,95.438,540.388,539.108,0.0
53606.0,STARLINK-4590,PAYLOAD,2023-02-24 12:01:46,15.08836553,0.0001021,53.2174,173.5722,107.118,252.9924,0.00073711,0.00011462,0.0,0 STARLINK-4590,1 53606U 22104U   23055.50123774  .00011462  00000-0  73711-3 0  9999,2 53606  53.2174 173.5722 0001021 107.1180 252.9924 15.08836553 28189,6917.891,95.438,540.462,539.05,0.0
53606.0,STARLINK-4590,PAYLOAD,2023-02-24 19:58:42,15.08855452,7.75e-05,53.2167,172.0855,86.6284,273.4797,0.00099046,0.00015517,0.0,0 STARLINK-4590,1 53606U 22104U   23055.83243429  .00015517  00000-0  99046-3 0  9999,2 53606  53.2167 172.0855 0000775  86.6284 273.4797 15.08855452 28234,6917.833,95.437,540.234,539.162,0.0
53606.0,STARLINK-4590,PAYLOAD,2023-02-25 00:44:52,15.08834717,7.09e-05,53.2165,171.1935,102.2316,257.8756,0.0001855,2.665e-05,0.0,0 STARLINK-4590,1 53606U 22104U   23056.03115828  .00002665  00000-0  18550-3 0  9994,2 53606  53.2165 171.1935 0000709 102.2316 257.8756 15.08834717 27690,6917.897,95.438,540.252,539.271,0.0
